CCSDS_OMM_VERS = 2.0
CREATION_DATE  = 
ORIGINATOR     = 

OBJECT_NAME    = STARLINK-36173
OBJECT_ID      = 2025-304U
CENTER_NAME    = EARTH
REF_FRAME      = TEME
TIME_SYSTEM    = UTC
MEAN_ELEMENT_THEORY = SGP/SGP4

EPOCH          = 2026-01-13T14:00:01.000224
MEAN_MOTION    = 15.42700600
ECCENTRICITY   = .00025239
INCLINATION    = 70.0002
RA_OF_ASC_NODE = 318.5123
ARG_OF_PERICENTER = 280.9919
MEAN_ANOMALY   = 36.5949

EPHEMERIS_TYPE = 0
CLASSIFICATION_TYPE = U
NORAD_CAT_ID   = 67210
ELEMENT_SET_NO = 999
REV_AT_EPOCH   = 558
BSTAR          = .60871431E-3
MEAN_MOTION_DOT = .26589E-3
MEAN_MOTION_DDOT = 0

CCSDS_OMM_VERS = 2.0
CREATION_DATE  = 
ORIGINATOR     = 

OBJECT_NAME    = STARLINK-36280
OBJECT_ID      = 2025-304V
CENTER_NAME    = EARTH
REF_FRAME      = TEME
TIME_SYSTEM    = UTC
MEAN_ELEMENT_THEORY = SGP/SGP4

EPOCH          = 2026-01-13T14:00:01.000224
MEAN_MOTION    = 15.42700587
ECCENTRICITY   = .00027524
INCLINATION    = 70.0001
RA_OF_ASC_NODE = 318.4868
ARG_OF_PERICENTER = 270.1276
MEAN_ANOMALY   = 69.4477

EPHEMERIS_TYPE = 0
CLASSIFICATION_TYPE = U
NORAD_CAT_ID   = 67211
ELEMENT_SET_NO = 999
REV_AT_EPOCH   = 558
BSTAR          = .72296475E-3
MEAN_MOTION_DOT = .31628E-3
MEAN_MOTION_DDOT = 0

CCSDS_OMM_VERS = 2.0
CREATION_DATE  = 
ORIGINATOR     = 

OBJECT_NAME    = STARLINK-36213
OBJECT_ID      = 2025-304W
CENTER_NAME    = EARTH
REF_FRAME      = TEME
TIME_SYSTEM    = UTC
MEAN_ELEMENT_THEORY = SGP/SGP4

EPOCH          = 2026-01-13T14:00:01.000224
MEAN_MOTION    = 15.42699678
ECCENTRICITY   = .00029152
INCLINATION    = 69.9999
RA_OF_ASC_NODE = 318.4617
ARG_OF_PERICENTER = 264.8693
MEAN_ANOMALY   = 96.7137

EPHEMERIS_TYPE = 0
CLASSIFICATION_TYPE = U
NORAD_CAT_ID   = 67212
ELEMENT_SET_NO = 999
REV_AT_EPOCH   = 558
BSTAR          = .63463904E-3
MEAN_MOTION_DOT = .27731E-3
MEAN_MOTION_DDOT = 0

CCSDS_OMM_VERS = 2.0
CREATION_DATE  = 
ORIGINATOR     = 

OBJECT_NAME    = STARLINK-36199
OBJECT_ID      = 2025-304X
CENTER_NAME    = EARTH
REF_FRAME      = TEME
TIME_SYSTEM    = UTC
MEAN_ELEMENT_THEORY = SGP/SGP4

EPOCH          = 2026-01-13T14:00:01.000224
MEAN_MOTION    = 15.42655729
ECCENTRICITY   = .00034657
INCLINATION    = 69.9998
RA_OF_ASC_NODE = 318.4104
ARG_OF_PERICENTER = 269.1705
MEAN_ANOMALY   = 137.4759

EPHEMERIS_TYPE = 0
CLASSIFICATION_TYPE = U
NORAD_CAT_ID   = 67213
ELEMENT_SET_NO = 999
REV_AT_EPOCH   = 558
BSTAR          = .10885225E-2
MEAN_MOTION_DOT = .47727E-3
MEAN_MOTION_DDOT = 0

CCSDS_OMM_VERS = 2.0
CREATION_DATE  = 
ORIGINATOR     = 

OBJECT_NAME    = STARLINK-36203
OBJECT_ID      = 2025-304Y
CENTER_NAME    = EARTH
REF_FRAME      = TEME
TIME_SYSTEM    = UTC
MEAN_ELEMENT_THEORY = SGP/SGP4

EPOCH          = 2026-01-13T14:00:01.000224
MEAN_MOTION    = 15.46145680
ECCENTRICITY   = .00038968
INCLINATION    = 69.9995
RA_OF_ASC_NODE = 318.3842
ARG_OF_PERICENTER = 268.9562
MEAN_ANOMALY   = 155.8927

EPHEMERIS_TYPE = 0
CLASSIFICATION_TYPE = U
NORAD_CAT_ID   = 67214
ELEMENT_SET_NO = 999
REV_AT_EPOCH   = 558
BSTAR          = -.44358344E-1
MEAN_MOTION_DOT = -.1954459E-1
MEAN_MOTION_DDOT = 0

CCSDS_OMM_VERS = 2.0
CREATION_DATE  = 
ORIGINATOR     = 

OBJECT_NAME    = STARLINK-36221
OBJECT_ID      = 2025-304Z
CENTER_NAME    = EARTH
REF_FRAME      = TEME
TIME_SYSTEM    = UTC
MEAN_ELEMENT_THEORY = SGP/SGP4

EPOCH          = 2026-01-13T14:00:01.000224
MEAN_MOTION    = 15.48750172
ECCENTRICITY   = .00035391
INCLINATION    = 70.0001
RA_OF_ASC_NODE = 318.3720
ARG_OF_PERICENTER = 270.8640
MEAN_ANOMALY   = 166.2453

EPHEMERIS_TYPE = 0
CLASSIFICATION_TYPE = U
NORAD_CAT_ID   = 67215
ELEMENT_SET_NO = 999
REV_AT_EPOCH   = 558
BSTAR          = -.41982822E-1
MEAN_MOTION_DOT = -.2018062E-1
MEAN_MOTION_DDOT = 0

CCSDS_OMM_VERS = 2.0
CREATION_DATE  = 
ORIGINATOR     = 

OBJECT_NAME    = STARLINK-36212
OBJECT_ID      = 2025-304AA
CENTER_NAME    = EARTH
REF_FRAME      = TEME
TIME_SYSTEM    = UTC
MEAN_ELEMENT_THEORY = SGP/SGP4

EPOCH          = 2026-01-13T13:38:20.830560
MEAN_MOTION    = 15.52026782
ECCENTRICITY   = .00039464
INCLINATION    = 70.0003
RA_OF_ASC_NODE = 318.4077
ARG_OF_PERICENTER = 261.6113
MEAN_ANOMALY   = 98.4627

EPHEMERIS_TYPE = 0
CLASSIFICATION_TYPE = U
NORAD_CAT_ID   = 67216
ELEMENT_SET_NO = 999
REV_AT_EPOCH   = 550
BSTAR          = -.39027035E-2
MEAN_MOTION_DOT = -.229421E-2
MEAN_MOTION_DDOT = 0

CCSDS_OMM_VERS = 2.0
CREATION_DATE  = 
ORIGINATOR     = 

OBJECT_NAME    = STARLINK-36216
OBJECT_ID      = 2025-304AB
CENTER_NAME    = EARTH
REF_FRAME      = TEME
TIME_SYSTEM    = UTC
MEAN_ELEMENT_THEORY = SGP/SGP4

EPOCH          = 2026-01-13T13:37:43.882464
MEAN_MOTION    = 15.52551157
ECCENTRICITY   = .0003366
INCLINATION    = 70.0003
RA_OF_ASC_NODE = 318.4057
ARG_OF_PERICENTER = 267.6032
MEAN_ANOMALY   = 92.4769

EPHEMERIS_TYPE = 0
CLASSIFICATION_TYPE = U
NORAD_CAT_ID   = 67217
ELEMENT_SET_NO = 999
REV_AT_EPOCH   = 550
BSTAR          = .11599492E-2
MEAN_MOTION_DOT = .71926E-3
MEAN_MOTION_DDOT = 0

CCSDS_OMM_VERS = 2.0
CREATION_DATE  = 
ORIGINATOR     = 

OBJECT_NAME    = STARLINK-36211
OBJECT_ID      = 2025-304AC
CENTER_NAME    = EARTH
REF_FRAME      = TEME
TIME_SYSTEM    = UTC
MEAN_ELEMENT_THEORY = SGP/SGP4

EPOCH          = 2026-01-13T13:37:14.353536
MEAN_MOTION    = 15.52556928
ECCENTRICITY   = .00035539
INCLINATION    = 70.0002
RA_OF_ASC_NODE = 318.4051
ARG_OF_PERICENTER = 265.4027
MEAN_ANOMALY   = 94.6754

EPHEMERIS_TYPE = 0
CLASSIFICATION_TYPE = U
NORAD_CAT_ID   = 67218
ELEMENT_SET_NO = 999
REV_AT_EPOCH   = 547
BSTAR          = .6468772E-3
MEAN_MOTION_DOT = .39885E-3
MEAN_MOTION_DDOT = 0

CCSDS_OMM_VERS = 2.0
CREATION_DATE  = 
ORIGINATOR     = 

OBJECT_NAME    = DISKSAT C
OBJECT_ID      = 2025-305A
CENTER_NAME    = EARTH
REF_FRAME      = TEME
TIME_SYSTEM    = UTC
MEAN_ELEMENT_THEORY = SGP/SGP4

EPOCH          = 2026-01-13T04:38:00.409920
MEAN_MOTION    = 15.06383883
ECCENTRICITY   = .0001975
INCLINATION    = 45.0014
RA_OF_ASC_NODE = 184.3075
ARG_OF_PERICENTER = 17.0714
MEAN_ANOMALY   = 343.0227

EPHEMERIS_TYPE = 0
CLASSIFICATION_TYPE = U
NORAD_CAT_ID   = 67219
ELEMENT_SET_NO = 999
REV_AT_EPOCH   = 392
BSTAR          = .59509E-3
MEAN_MOTION_DOT = .8673E-4
MEAN_MOTION_DDOT = 0

CCSDS_OMM_VERS = 2.0
CREATION_DATE  = 
ORIGINATOR     = 

OBJECT_NAME    = DISKSAT B
OBJECT_ID      = 2025-305B
CENTER_NAME    = EARTH
REF_FRAME      = TEME
TIME_SYSTEM    = UTC
MEAN_ELEMENT_THEORY = SGP/SGP4

EPOCH          = 2026-01-13T12:36:45.917280
MEAN_MOTION    = 15.06317880
ECCENTRICITY   = .00016723
INCLINATION    = 45.0014
RA_OF_ASC_NODE = 182.5609
ARG_OF_PERICENTER = 23.7990
MEAN_ANOMALY   = 336.2962

EPHEMERIS_TYPE = 0
CLASSIFICATION_TYPE = U
NORAD_CAT_ID   = 67220
ELEMENT_SET_NO = 999
REV_AT_EPOCH   = 397
BSTAR          = .45605468E-3
MEAN_MOTION_DOT = .6577E-4
MEAN_MOTION_DDOT = 0

CCSDS_OMM_VERS = 2.0
CREATION_DATE  = 
ORIGINATOR     = 

OBJECT_NAME    = DISKSAT D
OBJECT_ID      = 2025-305C
CENTER_NAME    = EARTH
REF_FRAME      = TEME
TIME_SYSTEM    = UTC
MEAN_ELEMENT_THEORY = SGP/SGP4

EPOCH          = 2026-01-13T12:37:52.948128
MEAN_MOTION    = 15.06284875
ECCENTRICITY   = .00020313
INCLINATION    = 45.0014
RA_OF_ASC_NODE = 182.5669
ARG_OF_PERICENTER = 34.4465
MEAN_ANOMALY   = 325.6541

EPHEMERIS_TYPE = 0
CLASSIFICATION_TYPE = U
NORAD_CAT_ID   = 67221
ELEMENT_SET_NO = 999
REV_AT_EPOCH   = 397
BSTAR          = .4560392E-3
MEAN_MOTION_DOT = .657E-4
MEAN_MOTION_DDOT = 0

