STARLINK-36173          
1 67210U 25304U   26013.58334491  .00026589  00000+0  60871-3 0  9993
2 67210  70.0002 318.5123 0002523 280.9919  36.5949 15.42700600  5589
STARLINK-36280          
1 67211U 25304V   26013.58334491  .00031628  00000+0  72296-3 0  9998
2 67211  70.0001 318.4868 0002752 270.1276  69.4477 15.42700587  5580
STARLINK-36213          
1 67212U 25304W   26013.58334491  .00027731  00000+0  63464-3 0  9996
2 67212  69.9999 318.4617 0002915 264.8693  96.7137 15.42699678  5584
STARLINK-36199          
1 67213U 25304X   26013.58334491  .00047727  00000+0  10885-2 0  9992
2 67213  69.9998 318.4104 0003465 269.1705 137.4759 15.42655729  5580
STARLINK-36203          
1 67214U 25304Y   26013.58334491 -.01954459  00000+0 -44358-1 0  9996
2 67214  69.9995 318.3842 0003896 268.9562 155.8927 15.46145680  5587
STARLINK-36221          
1 67215U 25304Z   26013.58334491 -.02018062  00000+0 -41983-1 0  9990
2 67215  70.0001 318.3720 0003539 270.8640 166.2453 15.48750172  5587
STARLINK-36212          
1 67216U 25304AA  26013.56829665 -.00229421  00000+0 -39027-2 0  9999
2 67216  70.0003 318.4077 0003946 261.6113  98.4627 15.52026782  5500
STARLINK-36216          
1 67217U 25304AB  26013.56786901  .00071926  00000+0  11599-2 0  9992
2 67217  70.0003 318.4057 0003366 267.6032  92.4769 15.52551157  5501
STARLINK-36211          
1 67218U 25304AC  26013.56752724  .00039885  00000+0  64688-3 0  9995
2 67218  70.0002 318.4051 0003553 265.4027  94.6754 15.52556928  5478
DISKSAT C               
1 67219U 25305A   26013.19306030  .00008673  00000+0  59509-3 0  9998
2 67219  45.0014 184.3075 0001975  17.0714 343.0227 15.06383883  3921
DISKSAT B               
1 67220U 25305B   26013.52553145  .00006577  00000+0  45605-3 0  9991
2 67220  45.0014 182.5609 0001672  23.7990 336.2962 15.06317880  3979
DISKSAT D               
1 67221U 25305C   26013.52630727  .00006570  00000+0  45604-3 0  9996
2 67221  45.0014 182.5669 0002031  34.4465 325.6541 15.06284875  3974
